{
  "type": "FeatureCollection",
  "features": [
    {
      "type": "Feature",
      "properties": {
        "norad_id": 34765,
        "name": "IRIDIUM 33 DEB",
        "group": "iridium-33-debris",
        "lat": 69.95267950062315,
        "lon": 46.09833823670015,
        "alt_km": 760.6279103639563,
        "timestamp": "2025-12-05T04:52:15.675824+00:00",
        "meta_object_name": "IRIDIUM 33 DEB",
        "meta_object_id": "1997-051LJ",
        "meta_epoch": "2025-12-04T15:47:27.445056",
        "meta_mean_motion": 14.40432843,
        "meta_eccentricity": 0.0014681,
        "meta_inclination": 86.3397,
        "meta_ra_of_asc_node": 36.2288,
        "meta_arg_of_pericenter": 240.3443,
        "meta_mean_anomaly": 245.6527,
        "meta_ephemeris_type": 0,
        "meta_classification_type": "U",
        "meta_norad_cat_id": 34765,
        "meta_element_set_no": 999,
        "meta_rev_at_epoch": 87497,
        "meta_bstar": 0.00077372,
        "meta_mean_motion_dot": 2.479e-05,
        "meta_mean_motion_ddot": 0,
        "tle_line1": "1 34765U 97051LJ  25338.65795654  .00002479  00000+0  77372-3 0  9995",
        "tle_line2": "2 34765  86.3397  36.2288 0014681 240.3443 245.6527 14.40432843874971"
      },
      "geometry": {
        "type": "Point",
        "coordinates": [
          46.09833823670015,
          69.95267950062315
        ]
      }
    },
    {
      "type": "Feature",
      "properties": {
        "norad_id": 34833,
        "name": "IRIDIUM 33 DEB",
        "group": "iridium-33-debris",
        "lat": -33.98316661360538,
        "lon": -123.32200840224044,
        "alt_km": 725.0385307513425,
        "timestamp": "2025-12-05T04:52:15.675833+00:00",
        "meta_object_name": "IRIDIUM 33 DEB",
        "meta_object_id": "1997-051MH",
        "meta_epoch": "2025-12-04T11:26:09.511872",
        "meta_mean_motion": 14.52297117,
        "meta_eccentricity": 0.00216,
        "meta_inclination": 86.3942,
        "meta_ra_of_asc_node": 54.5547,
        "meta_arg_of_pericenter": 123.9185,
        "meta_mean_anomaly": 254.0843,
        "meta_ephemeris_type": 0,
        "meta_classification_type": "U",
        "meta_norad_cat_id": 34833,
        "meta_element_set_no": 999,
        "meta_rev_at_epoch": 87595,
        "meta_bstar": 0.0019345,
        "meta_mean_motion_dot": 7.908e-05,
        "meta_mean_motion_ddot": 0,
        "tle_line1": "1 34833U 97051MH  25338.47649898  .00007908  00000+0  19345-2 0  9996",
        "tle_line2": "2 34833  86.3942  54.5547 0021600 123.9185 254.0843 14.52297117875952"
      },
      "geometry": {
        "type": "Point",
        "coordinates": [
          -123.32200840224044,
          -33.98316661360538
        ]
      }
    },
    {
      "type": "Feature",
      "properties": {
        "norad_id": 34870,
        "name": "IRIDIUM 33 DEB",
        "group": "iridium-33-debris",
        "lat": -75.94213854253549,
        "lon": 152.47039860203034,
        "alt_km": 641.3334602364566,
        "timestamp": "2025-12-05T04:52:15.675842+00:00",
        "meta_object_name": "IRIDIUM 33 DEB",
        "meta_object_id": "1997-051MQ",
        "meta_epoch": "2025-12-03T16:42:25.585344",
        "meta_mean_motion": 14.7612151,
        "meta_eccentricity": 0.00150063,
        "meta_inclination": 86.3102,
        "meta_ra_of_asc_node": 318.2257,
        "meta_arg_of_pericenter": 217.2591,
        "meta_mean_anomaly": 316.7951,
        "meta_ephemeris_type": 0,
        "meta_classification_type": "U",
        "meta_norad_cat_id": 34870,
        "meta_element_set_no": 999,
        "meta_rev_at_epoch": 88777,
        "meta_bstar": 0.002200073,
        "meta_mean_motion_dot": 0.00015256,
        "meta_mean_motion_ddot": 0,
        "tle_line1": "1 34870U 97051MQ  25337.69612946  .00015256  00000+0  22001-2 0  9992",
        "tle_line2": "2 34870  86.3102 318.2257 0015006 217.2591 316.7951 14.76121510887778"
      },
      "geometry": {
        "type": "Point",
        "coordinates": [
          152.47039860203034,
          -75.94213854253549
        ]
      }
    },
    {
      "type": "Feature",
      "properties": {
        "norad_id": 34896,
        "name": "IRIDIUM 33 DEB",
        "group": "iridium-33-debris",
        "lat": 11.028399868465163,
        "lon": -29.21714684063785,
        "alt_km": 685.3084300029104,
        "timestamp": "2025-12-05T04:52:15.675851+00:00",
        "meta_object_name": "IRIDIUM 33 DEB",
        "meta_object_id": "1997-051MY",
        "meta_epoch": "2025-12-04T05:57:48.984768",
        "meta_mean_motion": 14.66139548,
        "meta_eccentricity": 0.0023794,
        "meta_inclination": 86.3283,
        "meta_ra_of_asc_node": 330.4937,
        "meta_arg_of_pericenter": 245.976,
        "meta_mean_anomaly": 130.3952,
        "meta_ephemeris_type": 0,
        "meta_classification_type": "U",
        "meta_norad_cat_id": 34896,
        "meta_element_set_no": 999,
        "meta_rev_at_epoch": 87495,
        "meta_bstar": 0.0021831,
        "meta_mean_motion_dot": 0.00012077,
        "meta_mean_motion_ddot": 0,
        "tle_line1": "1 34896U 97051MY  25338.24848362  .00012077  00000+0  21831-2 0  9993",
        "tle_line2": "2 34896  86.3283 330.4937 0023794 245.9760 130.3952 14.66139548874952"
      },
      "geometry": {
        "type": "Point",
        "coordinates": [
          -29.21714684063785,
          11.028399868465163
        ]
      }
    },
    {
      "type": "Feature",
      "properties": {
        "norad_id": 34926,
        "name": "IRIDIUM 33 DEB",
        "group": "iridium-33-debris",
        "lat": 65.00127945420148,
        "lon": 20.109269694183546,
        "alt_km": 722.0069666179561,
        "timestamp": "2025-12-05T04:52:15.675861+00:00",
        "meta_object_name": "IRIDIUM 33 DEB",
        "meta_object_id": "1997-051NF",
        "meta_epoch": "2025-12-04T14:18:19.461312",
        "meta_mean_motion": 14.53845414,
        "meta_eccentricity": 0.0076693,
        "meta_inclination": 86.1322,
        "meta_ra_of_asc_node": 12.0478,
        "meta_arg_of_pericenter": 320.5394,
        "meta_mean_anomaly": 169.4917,
        "meta_ephemeris_type": 0,
        "meta_classification_type": "U",
        "meta_norad_cat_id": 34926,
        "meta_element_set_no": 999,
        "meta_rev_at_epoch": 86338,
        "meta_bstar": 0.012333,
        "meta_mean_motion_dot": 0.00054245,
        "meta_mean_motion_ddot": 0,
        "tle_line1": "1 34926U 97051NF  25338.59605858  .00054245  00000+0  12333-1 0  9995",
        "tle_line2": "2 34926  86.1322  12.0478 0076693 320.5394 169.4917 14.53845414863381"
      },
      "geometry": {
        "type": "Point",
        "coordinates": [
          20.109269694183546,
          65.00127945420148
        ]
      }
    },
    {
      "type": "Feature",
      "properties": {
        "norad_id": 34985,
        "name": "IRIDIUM 33 DEB",
        "group": "iridium-33-debris",
        "lat": 21.054066652773447,
        "lon": -121.30558397538842,
        "alt_km": 751.389422252696,
        "timestamp": "2025-12-05T04:52:15.675870+00:00",
        "meta_object_name": "IRIDIUM 33 DEB",
        "meta_object_id": "1997-051NR",
        "meta_epoch": "2025-12-03T17:45:54.671040",
        "meta_mean_motion": 14.41942363,
        "meta_eccentricity": 0.0019945,
        "meta_inclination": 86.3703,
        "meta_ra_of_asc_node": 60.7182,
        "meta_arg_of_pericenter": 251.1586,
        "meta_mean_anomaly": 239.5788,
        "meta_ephemeris_type": 0,
        "meta_classification_type": "U",
        "meta_norad_cat_id": 34985,
        "meta_element_set_no": 999,
        "meta_rev_at_epoch": 87045,
        "meta_bstar": 0.0011135704,
        "meta_mean_motion_dot": 3.675e-05,
        "meta_mean_motion_ddot": 0,
        "tle_line1": "1 34985U 97051NR  25337.74021610  .00003675  00000+0  11136-2 0  9996",
        "tle_line2": "2 34985  86.3703  60.7182 0019945 251.1586 239.5788 14.41942363870451"
      },
      "geometry": {
        "type": "Point",
        "coordinates": [
          -121.30558397538842,
          21.054066652773447
        ]
      }
    },
    {
      "type": "Feature",
      "properties": {
        "norad_id": 35051,
        "name": "IRIDIUM 33 DEB",
        "group": "iridium-33-debris",
        "lat": -59.520971909637645,
        "lon": 5.880004967501537,
        "alt_km": 748.2500803587645,
        "timestamp": "2025-12-05T04:52:15.675879+00:00",
        "meta_object_name": "IRIDIUM 33 DEB",
        "meta_object_id": "1997-051NX",
        "meta_epoch": "2025-12-02T20:44:20.358528",
        "meta_mean_motion": 14.47524123,
        "meta_eccentricity": 0.00104766,
        "meta_inclination": 86.3255,
        "meta_ra_of_asc_node": 13.167,
        "meta_arg_of_pericenter": 117.6322,
        "meta_mean_anomaly": 242.5946,
        "meta_ephemeris_type": 0,
        "meta_classification_type": "U",
        "meta_norad_cat_id": 35051,
        "meta_element_set_no": 999,
        "meta_rev_at_epoch": 86853,
        "meta_bstar": 0.00083073982,
        "meta_mean_motion_dot": 3.075e-05,
        "meta_mean_motion_ddot": 0,
        "tle_line1": "1 35051U 97051NX  25336.86412452  .00003075  00000+0  83074-3 0  9996",
        "tle_line2": "2 35051  86.3255  13.1670 0010476 117.6322 242.5946 14.47524123868538"
      },
      "geometry": {
        "type": "Point",
        "coordinates": [
          5.880004967501537,
          -59.520971909637645
        ]
      }
    }
  ]
}